NORAD_CAT_ID,OBJECT_NAME,OBJECT_TYPE,EPOCH,MEAN_MOTION,ECCENTRICITY,INCLINATION,RA_OF_ASC_NODE,ARG_OF_PERICENTER,MEAN_ANOMALY,BSTAR,MEAN_MOTION_DOT,MEAN_MOTION_DDOT,TLE_LINE0,TLE_LINE1,TLE_LINE2,SEMIMAJOR_AXIS,PERIOD,APOGEE,PERIGEE,DECAYED
53419.0,STARLINK-4476,PAYLOAD,2023-02-19 18:58:47,15.08849372,0.0001307,53.2162,74.6089,106.2327,253.8809,0.00024754,3.655e-05,0.0,0 STARLINK-4476,1 53419U 22097AH  23050.79082641  .00003655  00000-0  24754-3 0  9993,2 53419  53.2162  74.6089 0001307 106.2327 253.8809 15.08849372 30004,6917.852,95.437,540.621,538.813,0.0
53419.0,STARLINK-4476,PAYLOAD,2023-02-20 07:41:52,15.08853392,0.0001315,53.2163,72.2305,102.755,257.359,0.00026663,3.96e-05,0.0,0 STARLINK-4476,1 53419U 22097AH  23051.32074315  .00003960  00000-0  26663-3 0  9992,2 53419  53.2163  72.2305 0001315 102.7550 257.3590 15.08853392 30540,6917.839,95.437,540.614,538.795,0.0
53419.0,STARLINK-4476,PAYLOAD,2023-02-20 18:49:34,15.08846268,0.0001069,53.2174,70.1498,101.3228,258.7885,0.00010206,1.337e-05,0.0,0 STARLINK-4476,1 53419U 22097AH  23051.78442352  .00001337  00000-0  10206-3 0  9994,2 53419  53.2174  70.1498 0001069 101.3228 258.7885 15.08846268 30158,6917.861,95.437,540.466,538.987,0.0
53419.0,STARLINK-4476,PAYLOAD,2023-02-21 07:32:39,15.08843001,0.0001356,53.216,67.7705,93.7138,266.4009,1.1376e-05,-1.07e-06,0.0,0 STARLINK-4476,1 53419U 22097AH  23052.31434608 -.00000107  00000-0  11376-4 0  9994,2 53419  53.2160  67.7705 0001356  93.7138 266.4009 15.08843001 30694,6917.871,95.437,540.674,538.798,0.0
53419.0,STARLINK-4476,PAYLOAD,2023-02-22 10:34:12,15.08851416,0.0001342,53.2167,62.7161,89.8941,270.2205,4.1286e-05,3.69e-06,0.0,0 STARLINK-4476,1 53419U 22097AH  23053.44042083  .00000369  00000-0  41286-4 0  9993,2 53419  53.2167  62.7161 0001342  89.8941 270.2205 15.08851416 30404,6917.845,95.437,540.639,538.782,0.0
53419.0,STARLINK-4476,PAYLOAD,2023-02-23 05:38:50,15.0883489,0.0001469,53.2169,59.1462,111.4006,248.7143,5.3964e-05,5.71e-06,0.0,0 STARLINK-4476,1 53419U 22097AH  23054.23531075  .00000571  00000-0  53964-4 0  9996,2 53419  53.2169  59.1462 0001469 111.4006 248.7143 15.08834890 30525,6917.896,95.438,540.777,538.745,0.0
53419.0,STARLINK-4476,PAYLOAD,2023-02-23 10:25:00,15.08839879,0.0001264,53.2171,58.255,97.4926,262.6209,8.2224e-05,1.021e-05,0.0,0 STARLINK-4476,1 53419U 22097AH  23054.43402888  .00001021  00000-0  82224-4 0  9999,2 53419  53.2171  58.2550 0001264  97.4926 262.6209 15.08839879 31018,6917.881,95.438,540.62,538.871,0.0
53419.0,STARLINK-4476,PAYLOAD,2023-02-23 16:46:32,15.08840699,0.0001138,53.2171,57.0656,92.9766,267.1357,9.6757e-05,1.252e-05,0.0,0 STARLINK-4476,1 53419U 22097AH  23054.69898871  .00001252  00000-0  96757-4 0  9990,2 53419  53.2171  57.0656 0001138  92.9766 267.1357 15.08840699 31054,6917.878,95.438,540.531,538.956,0.0
53419.0,STARLINK-4476,PAYLOAD,2023-02-24 05:29:36,15.0885847,0.0001413,53.2174,54.6866,111.801,248.3133,-0.00024553,-4.195e-05,0.0,0 STARLINK-4476,1 53419U 22097AH  23055.22889868 -.00004195  00000-0 -24553-3 0  9991,2 53419  53.2174  54.6866 0001413 111.8010 248.3133 15.08858470 30678,6917.824,95.436,540.666,538.711,0.0
53419.0,STARLINK-4476,PAYLOAD,2023-02-24 10:15:46,15.08854703,0.0001281,53.2172,53.7948,112.7329,247.3798,0.00014802,2.07e-05,0.0,0 STARLINK-4476,1 53419U 22097AH  23055.42762136  .00002070  00000-0  14802-3 0  9995,2 53419  53.2172  53.7948 0001281 112.7329 247.3798 15.08854703 31169,6917.835,95.437,540.587,538.814,0.0
53419.0,STARLINK-4476,PAYLOAD,2023-02-24 16:37:19,15.08843333,0.0001135,53.2171,52.6059,96.1594,263.9527,0.00013916,1.928e-05,0.0,0 STARLINK-4476,1 53419U 22097AH  23055.69258613  .00001928  00000-0  13916-3 0  9990,2 53419  53.2171  52.6059 0001135  96.1594 263.9527 15.08843333 30740,6917.87,95.437,540.52,538.95,0.0
53419.0,STARLINK-4476,PAYLOAD,2023-02-25 00:34:15,15.08829284,0.0001084,53.2179,51.1182,91.3959,268.7158,-0.00010409,-1.943e-05,0.0,0 STARLINK-4476,1 53419U 22097AH  23056.02379319 -.00001943  00000-0 -10409-3 0  9998,2 53419  53.2179  51.1182 0001084  91.3959 268.7158 15.08829284 30791,6917.913,95.438,540.528,539.028,0.0
53419.0,STARLINK-4476,PAYLOAD,2023-02-25 08:31:11,15.08836329,0.0001215,53.218,49.6314,86.339,273.7741,5.8026e-05,6.36e-06,0.0,0 STARLINK-4476,1 53419U 22097AH  23056.35499382  .00000636  00000-0  58026-4 0  9991,2 53419  53.2180  49.6314 0001215  86.3390 273.7741 15.08836329 31301,6917.892,95.438,540.597,538.916,0.0
53419.0,STARLINK-4476,PAYLOAD,2023-02-25 16:28:07,15.08839094,0.0001328,53.2186,48.145,88.8747,271.2397,8.7648e-05,1.107e-05,0.0,0 STARLINK-4476,1 53419U 22097AH  23056.68619392  .00001107  00000-0  87648-4 0  9998,2 53419  53.2186  48.1450 0001328  88.8747 271.2397 15.08839094 30895,6917.883,95.438,540.667,538.829,0.0
53419.0,STARLINK-4476,PAYLOAD,2023-02-25 22:49:39,15.08843314,0.000121,53.2191,46.956,86.0466,274.0665,0.00018653,2.682e-05,0.0,0 STARLINK-4476,1 53419U 22097AH  23056.95115175  .00002682  00000-0  18653-3 0  9996,2 53419  53.2191  46.9560 0001210  86.0466 274.0665 15.08843314 31392,6917.87,95.437,540.572,538.898,0.0
53419.0,STARLINK-4476,PAYLOAD,2023-02-26 08:21:58,15.08859397,0.0001294,53.2175,45.171,84.2655,275.8485,0.00084628,0.00013213,0.0,0 STARLINK-4476,1 53419U 22097AH  23057.34858850  .00013213  00000-0  84628-3 0  9991,2 53419  53.2175  45.1710 0001294  84.2655 275.8485 15.08859397 30996,6917.821,95.436,540.581,538.791,0.0
53419.0,STARLINK-4476,PAYLOAD,2023-02-26 16:18:54,15.08846647,0.0001653,53.2182,43.6846,76.4161,283.7016,0.0003847,5.841e-05,0.0,0 STARLINK-4476,1 53419U 22097AH  23057.67979283  .00005841  00000-0  38470-3 0  9993,2 53419  53.2182  43.6846 0001653  76.4161 283.7016 15.08846647 31040,6917.86,95.437,540.869,538.582,0.0
53419.0,STARLINK-4476,PAYLOAD,2023-02-27 08:12:44,15.08863499,0.0001409,53.2163,40.711,78.7367,281.3784,0.0010384,0.00016287,0.0,0 STARLINK-4476,1 53419U 22097AH  23058.34218705  .00016287  00000-0  10384-2 0  9992,2 53419  53.2163  40.7110 0001409  78.7367 281.3784 15.08863499 31605,6917.809,95.436,540.648,538.699,0.0
53419.0,STARLINK-4476,PAYLOAD,2023-02-27 16:09:40,15.08887783,0.000101,53.2172,39.2236,89.2296,270.8811,0.0023779,0.00037809,0.0,0 STARLINK-4476,1 53419U 22097AH  23058.67338324  .00037809  00000-0  23779-2 0  9993,2 53419  53.2172  39.2236 0001010  89.2296 270.8811 15.08887783 31193,6917.734,95.435,540.298,538.901,0.0
53419.0,STARLINK-4476,PAYLOAD,2023-02-28 04:52:45,15.08872178,0.0001138,53.2173,36.8447,91.2516,268.8606,0.0010171,0.0001595,0.0,0 STARLINK-4476,1 53419U 22097AH  23059.20329887  .00015950  00000-0  10171-2 0  9992,2 53419  53.2173  36.8447 0001138  91.2516 268.8606 15.08872178 31270,6917.782,95.436,540.434,538.86,0.0
53419.0,STARLINK-4476,PAYLOAD,2023-02-28 08:03:30,15.08883904,0.0001346,53.2173,36.2505,89.0961,271.0185,0.0013672,0.00021564,0.0,0 STARLINK-4476,1 53419U 22097AH  23059.33577511  .00021564  00000-0  13672-2 0  9992,2 53419  53.2173  36.2505 0001346  89.0961 271.0185 15.08883904 31759,6917.746,95.435,540.542,538.68,0.0
53419.0,STARLINK-4476,PAYLOAD,2023-02-28 16:00:27,15.08837148,0.0001055,53.2181,34.7641,115.6087,244.5014,-0.00015835,-2.807e-05,0.0,0 STARLINK-4476,1 53419U 22097AH  23059.66698179 -.00002807  00000-0 -15835-3 0  9997,2 53419  53.2181  34.7641 0001055 115.6087 244.5014 15.08837148 31344,6917.889,95.438,540.484,539.024,0.0
53419.0,STARLINK-4476,PAYLOAD,2023-03-01 04:43:34,15.08795881,0.0001335,53.2174,32.3853,121.14,238.9723,0.0010712,0.00016781,0.0,0 STARLINK-4476,1 53419U 22097AH  23060.19692208  .00016781  00000-0  10712-2 0  9996,2 53419  53.2174  32.3853 0001335 121.1400 238.9723 15.08795881 31427,6918.015,95.44,540.804,538.957,0.0
53419.0,STARLINK-4476,PAYLOAD,2023-03-01 22:12:49,15.08842419,0.0001492,53.2183,29.1144,123.8845,236.2289,0.0021208,0.00033628,0.0,0 STARLINK-4476,1 53419U 22097AH  23060.92557419  .00033628  00000-0  21208-2 0  9992,2 53419  53.2183  29.1144 0001492 123.8845 236.2289 15.08842419 31990,6917.873,95.437,540.77,538.706,0.0
53419.0,STARLINK-4476,PAYLOAD,2023-03-02 02:58:58,15.08858571,0.0001461,53.2182,28.2223,125.2353,234.8776,0.0022406,0.0003557,0.0,0 STARLINK-4476,1 53419U 22097AH  23061.12429224  .00035570  00000-0  22406-2 0  9996,2 53419  53.2182  28.2223 0001461 125.2353 234.8776 15.08858571 31567,6917.824,95.436,540.699,538.678,0.0
53419.0,STARLINK-4476,PAYLOAD,2023-03-02 07:45:07,15.08875508,0.0001422,53.2179,27.3306,126.0501,234.0623,0.0023297,0.0003702,0.0,0 STARLINK-4476,1 53419U 22097AH  23061.32300800  .00037020  00000-0  23297-2 0  9997,2 53419  53.2179  27.3306 0001422 126.0501 234.0623 15.08875508 32053,6917.772,95.435,540.621,538.653,0.0
53419.0,STARLINK-4476,PAYLOAD,2023-03-03 06:00:30,15.08897854,0.0001318,53.2176,23.168,125.6843,234.4272,0.0027323,0.00043534,0.0,0 STARLINK-4476,1 53419U 22097AH  23062.25035441  .00043534  00000-0  27323-2 0  9997,2 53419  53.2176  23.1680 0001318 125.6843 234.4272 15.08897854 31733,6917.704,95.434,540.48,538.657,0.0
53419.0,STARLINK-4476,PAYLOAD,2023-03-04 07:26:39,15.08892149,0.0001037,53.2172,18.4091,105.5677,254.543,0.0018897,0.00029958,0.0,0 STARLINK-4476,1 53419U 22097AH  23063.31017900  .00029958  00000-0  18897-2 0  9995,2 53419  53.2172  18.4091 0001037 105.5677 254.5430 15.08892149 31890,6917.721,95.434,540.303,538.869,0.0
53419.0,STARLINK-4476,PAYLOAD,2023-03-04 09:02:02,15.08900647,0.0001042,53.2174,18.1118,104.8998,255.211,0.0020878,0.00033151,0.0,0 STARLINK-4476,1 53419U 22097AH  23063.37641603  .00033151  00000-0  20878-2 0  9996,2 53419  53.2174  18.1118 0001042 104.8998 255.2110 15.08900647 32362,6917.695,95.434,540.281,538.839,0.0
53419.0,STARLINK-4476,PAYLOAD,2023-03-04 20:09:45,15.08828271,0.000206,53.217,16.0322,86.543,273.5797,0.0011883,0.00018668,0.0,0 STARLINK-4476,1 53419U 22097AH  23063.84010923  .00018668  00000-0  11883-2 0  9995,2 53419  53.2170  16.0322 0002060  86.5430 273.5797 15.08828271 31972,6917.916,95.438,541.206,538.356,0.0
